      2.10          N: GNSS NAV DATA                        RINEX VERSION / TYPE
fic2rin                                 05/14/2024 00:59:02 PGM / RUN BY / DATE
                                                            END OF HEADER
3  24  5 13  1 59 44.0  .360403675586D-03  .196678229258D-10  .000000000000D+00
     .300000000000D+01 -.892500000000D+02  .408838458334D-08 -.134980443268D+01
    -.450015068054D-05  .546033785213D-02  .501610338688D-05  .515373167419D+04
     .935840000000D+05  .150874257088D-06 -.295965923122D+01  .113621354103D-06
     .984518431590D+00  .296656250000D+03  .107738811100D+01 -.786997067301D-08
    -.357157734196D-12  .100000000000D+01  .231400000000D+04  .000000000000D+00
     .240000000000D+01  .000000000000D+00  .139698386192D-08  .300000000000D+01
     .864000000000D+05  .400000000000D+01
5  24  5 13  1 59 44.0 -.172498635948D-03 -.136424205266D-11  .000000000000D+00
     .240000000000D+02 -.914375000000D+02  .431589406003D-08  .230678421263D+01
    -.481307506561D-05  .583343324251D-02  .538490712643D-05  .515361512947D+04
     .935840000000D+05  .372529029846D-08 -.301079220600D+01 -.111758708954D-06
     .971484160660D+00  .282093750000D+03  .124377873976D+01 -.788925719066D-08
    -.207151485834D-10  .100000000000D+01  .231400000000D+04  .000000000000D+00
     .240000000000D+01  .000000000000D+00 -.107102096081D-07  .240000000000D+02
     .864000000000D+05  .400000000000D+01
2  24  5 13  2  0  0.0 -.437217764556D-03  .670752342558D-11  .000000000000D+00
     .840000000000D+02  .550000000000D+02  .434982404477D-08  .217965083253D+01
     .266917049885D-05  .159984832862D-01  .243447721004D-05  .515370629311D+04
     .936000000000D+05  .203028321266D-06  .218939442139D+01 -.447034835815D-07
     .967307264756D+00  .332625000000D+03 -.119078419148D+01 -.798604693662D-08
     .153577825704D-10  .100000000000D+01  .231400000000D+04  .000000000000D+00
     .240000000000D+01  .000000000000D+00 -.176951289177D-07  .840000000000D+02
     .864000000000D+05  .400000000000D+01
1  24  5 13  2  0  0.0  .275007914752D-03 -.488853402203D-11  .000000000000D+00
     .102000000000D+03  .310937500000D+02  .570916638112D-08 -.289023261800D+01
     .159814953804D-05  .134024247527D-01  .825524330139D-05  .515375621796D+04
     .936000000000D+05  .122934579849D-06  .194972137646D+00 -.108033418655D-06
     .954962295956D+00  .216218750000D+03  .103174525857D+01 -.764246119633D-08
    -.342871424828D-09  .100000000000D+01  .231400000000D+04  .000000000000D+00
     .340000000000D+01  .630000000000D+02 -.195577740669D-07  .102000000000D+03
     .864000000000D+05  .400000000000D+01
4  24  5 13  2  0  0.0  .359797850251D-03  .841282599140D-11  .000000000000D+00
     .107000000000D+03 -.542812500000D+02  .448911556111D-08  .161048189446D+01
    -.261701643467D-05  .281220534816D-02  .871531665325D-05  .515375214005D+04
     .936000000000D+05  .558793544769D-07 -.188116393993D+01  .931322574615D-07
     .964518976544D+00  .215687500000D+03 -.294512536539D+01 -.787461372356D-08
     .255724937684D-09  .100000000000D+01  .231400000000D+04  .000000000000D+00
     .240000000000D+01  .000000000000D+00 -.465661287308D-08  .619000000000D+03
     .864000000000D+05  .400000000000D+01
20 24  5 13  3 59 44.0  .376781448722D-03 -.136424205266D-11  .000000000000D+00
     .600000000000D+02 -.723125000000D+02  .471555356459D-08  .143782029620D+01
    -.393204391003D-05  .360807019752D-02  .386685132980D-05  .515378801537D+04
     .100784000000D+06 -.558793544769D-08 -.313936518526D+01  .521540641785D-07
     .953935400610D+00  .298093750000D+03 -.259129229101D+01 -.829213111483D-08
     .128576784311D-10  .100000000000D+01  .231400000000D+04  .000000000000D+00
     .240000000000D+01  .000000000000D+00 -.838190317154D-08  .600000000000D+02
     .936000000000D+05  .400000000000D+01
3  24  5 13  4  0  0.0  .360545702279D-03  .196678229258D-10  .000000000000D+00
     .400000000000D+01 -.926875000000D+02  .411552857114D-08 -.297347468138D+00
    -.480376183987D-05  .545999500901D-02  .525638461113D-05  .515373109055D+04
     .100800000000D+06 -.186264514923D-07 -.295971677510D+01  .745058059692D-07
     .984517831794D+00  .295937500000D+03  .107740734984D+01 -.801283376669D-08
     .928610108910D-11  .100000000000D+01  .231400000000D+04  .000000000000D+00
     .240000000000D+01  .000000000000D+00  .139698386192D-08  .400000000000D+01
     .936000000000D+05  .400000000000D+01
2  24  5 13  4  0  0.0 -.437169335783D-03  .670752342558D-11  .000000000000D+00
     .850000000000D+02  .598437500000D+02  .433946647048D-08 -.305338496640D+01
     .295415520668D-05  .159989499953D-01  .219978392124D-05  .515370565414D+04
     .100800000000D+06  .173225998878D-06  .218933601438D+01  .175088644028D-06
     .967307905514D+00  .335906250000D+03 -.119077365115D+01 -.798033241288D-08
     .185364864048D-09  .100000000000D+01  .231400000000D+04  .000000000000D+00
     .340000000000D+01  .000000000000D+00 -.176951289177D-07  .850000000000D+02
     .936000000000D+05  .400000000000D+01
1  24  5 13  4  0  0.0  .274972524494D-03 -.488853402203D-11  .000000000000D+00
     .103000000000D+03  .309687500000D+02  .576059709485D-08 -.184010453126D+01
     .159256160259D-05  .134027039167D-01  .816397368908D-05  .515375566483D+04
     .100800000000D+06  .275671482086D-06  .194917338198D+00 -.707805156708D-07
     .954959710979D+00  .218968750000D+03  .103175643234D+01 -.769853496060D-08
    -.395373611755D-09  .100000000000D+01  .231400000000D+04  .000000000000D+00
     .340000000000D+01  .630000000000D+02 -.195577740669D-07  .103000000000D+03
     .936000000000D+05  .400000000000D+01
5  24  5 13  4  0  0.0 -.172508414835D-03 -.136424205266D-11  .000000000000D+00
     .370000000000D+02 -.860937500000D+02  .427303513192D-08 -.292393714750D+01
    -.473298132420D-05  .583301950246D-02  .507198274136D-05  .515361614037D+04
     .100800000000D+06  .132247805595D-06 -.301084971770D+01 -.800937414169D-07
     .971484075811D+00  .285812500000D+03  .124386322182D+01 -.793854495798D-08
     .617882880159D-10  .100000000000D+01  .231400000000D+04  .000000000000D+00
     .240000000000D+01  .000000000000D+00 -.107102096081D-07  .370000000000D+02
     .936000000000D+05  .400000000000D+01
11 24  5 13  4  0  0.0 -.660783611238D-03 -.943600753089D-11  .000000000000D+00
     .280000000000D+02  .281250000000D+02  .437018203562D-08  .227153887489D+01
     .164471566677D-05  .127472402528D-02  .270642340183D-05  .515370694160D+04
     .100800000000D+06 -.707805156708D-07  .232071908957D+01 -.130385160446D-07
     .966223194183D+00  .325437500000D+03 -.256007697513D+01 -.819212694926D-08
     .174650132022D-09  .100000000000D+01  .231400000000D+04  .000000000000D+00
     .240000000000D+01  .000000000000D+00 -.884756445885D-08  .280000000000D+02
     .936000000000D+05  .400000000000D+01
8  24  5 13  4  0  0.0  .175242312253D-03  .205773176276D-10  .000000000000D+00
     .250000000000D+02  .101125000000D+03  .431232248268D-08  .298076243894D+01
     .517442822456D-05  .945710099768D-02  .787898898125D-05  .515363501740D+04
     .100800000000D+06 -.689178705215D-07  .119177511074D+01 -.894069671631D-07
     .953300096250D+00  .224687500000D+03  .362239405434D+00 -.784925552443D-08
    -.914323799542D-10  .100000000000D+01  .231400000000D+04  .000000000000D+00
     .240000000000D+01  .000000000000D+00  .465661287308D-08  .250000000000D+02
     .936000000000D+05  .400000000000D+01
7  24  5 13  4  0  0.0 -.127689447254D-03 -.818545231596D-11  .000000000000D+00
     .107000000000D+03 -.375000000000D+00  .513949979508D-08  .134941861876D+00
     .204890966415D-06  .184977189638D-01  .687316060066D-05  .515363344002D+04
     .100800000000D+06 -.132247805595D-06 -.867960974904D+00  .206753611565D-06
     .950131109940D+00  .241687500000D+03 -.212489357768D+01 -.845856661897D-08
    -.110718897601D-10  .100000000000D+01  .231400000000D+04  .000000000000D+00
     .240000000000D+01  .000000000000D+00 -.111758708954D-07  .107000000000D+03
     .936000000000D+05  .400000000000D+01
4  24  5 13  4  0  0.0  .359858851880D-03  .841282599140D-11  .000000000000D+00
     .108000000000D+03 -.624687500000D+02  .442625579989D-08  .266017868662D+01
    -.314600765705D-05  .281194527633D-02  .909715890884D-05  .515375433922D+04
     .100800000000D+06 -.782310962677D-07 -.188122086792D+01  .130385160446D-07
     .964521536651D+00  .208812500000D+03 -.294469052177D+01 -.777532387345D-08
     .350371737246D-09  .100000000000D+01  .231400000000D+04  .000000000000D+00
     .240000000000D+01  .000000000000D+00 -.465661287308D-08  .620000000000D+03
     .936000000000D+05  .400000000000D+01
10 24  5 13  4  0  0.0 -.222423113883D-04 -.636646291241D-11  .000000000000D+00
     .140000000000D+02 -.887812500000D+02  .399123767964D-08 -.131738941719D+01
    -.452809035778D-05  .930706725921D-02  .548735260963D-05  .515369020844D+04
     .100800000000D+06  .139698386192D-06 -.296228506969D+01  .279396772385D-07
     .984184974043D+00  .281437500000D+03 -.236885795674D+01 -.781675417062D-08
     .914323799542D-10  .100000000000D+01  .231400000000D+04  .000000000000D+00
     .240000000000D+01  .000000000000D+00  .232830643654D-08  .140000000000D+02
     .936000000000D+05  .400000000000D+01
21 24  5 13  4  0  0.0  .121941324323D-03 -.227373675443D-11  .000000000000D+00
     .230000000000D+02  .671562500000D+02  .442232706482D-08  .285307092487D+01
     .341981649399D-05  .251778750680D-01  .231713056564D-05  .515369729424D+04
     .100800000000D+06 -.875443220139D-07  .218222945679D+01  .419095158577D-06
     .961571180522D+00  .331218750000D+03 -.576044925143D+00 -.798497546342D-08
     .124648049234D-09  .100000000000D+01  .231400000000D+04  .000000000000D+00
     .240000000000D+01  .000000000000D+00 -.102445483208D-07  .230000000000D+02
     .936000000000D+05  .400000000000D+01
